PROBA-1                 
1 26958U 01049B   26197.14196818  .00001251  00000+0  83964-4 0  9999
2 26958  97.9599 206.6875 0055684  26.7516 333.6564 15.07618680347982
CUTE-1 (CO-55)          
1 27844U 03031E   26196.97918346  .00000131  00000+0  75469-4 0  9992
2 27844  98.6744 205.1765 0010841 100.6537 259.5863 14.24351837195772
CUBESAT XI-IV (CO-57)   
1 27848U 03031J   26196.98211363  .00000105  00000+0  65012-4 0  9996
2 27848  98.6774 204.8688 0010566 117.3488 242.8767 14.23634777195474
APRIZESAT 4             
1 35684U 09041D   26197.11751429  .00000334  00000+0  46632-4 0  9999
2 35684  98.1404 273.0135 0042285 226.4729 133.2968 14.83914381915658
APRIZESAT 3             
1 35686U 09041F   26196.98810491  .00000765  00000+0  71213-4 0  9991
2 35686  98.2102 351.5983 0060765 333.2852  26.5241 14.96312357920682
PROBA-2                 
1 36037U 09059B   26197.12611948  .00000055  00000+0  23429-4 0  9992
2 36037  98.2459  20.0791 0013065 185.7939 174.3109 14.54873843885737
APRIZESAT 5             
1 37792U 11044E   26197.05704850  .00000384  00000+0  55965-4 0  9990
2 37792  98.2449 130.9171 0050686 269.8503  89.6900 14.81128340803067
APRIZESAT 6             
1 37793U 11044F   26196.34067692  .00000355  00000+0  57569-4 0  9998
2 37793  98.2338 107.4128 0043042 357.8013 119.3307 14.76956881801308
PROBA-V                 
1 39159U 13021A   26196.93582777  .00000014  00000+0  24298-4 0  9999
2 39159  98.3606 174.1262 0005231  58.2568 301.9121 14.23603473685200
APRIZESAT 7             
1 39416U 13066A   26197.13427304  .00000553  00000+0  60072-4 0  9999
2 39416  97.7723 149.9413 0037265 114.3183 246.1934 14.91620251685543
APRIZESAT 8             
1 39425U 13066K   26196.86164186  .00000361  00000+0  45114-4 0  9991
2 39425  97.8230 143.9322 0045546 189.6765 170.3579 14.87697038683938
BUGSAT-1 (TITA)         
1 40014U 14033E   26197.21513103  .00003945  00000+0  20788-3 0  9999
2 40014  98.0437 291.4674 0028935  82.5645 277.8872 15.15887482660239
SAUDISAT 4              
1 40016U 14033G   26197.13152492  .00000212  00000+0  34846-4 0  9997
2 40016  97.7619 342.2713 0044177 340.9956  18.9605 14.79576020650352
APRIZESAT 9             
1 40018U 14033J   26197.18951334  .00000301  00000+0  51525-4 0  9998
2 40018  97.9096 329.6847 0067464 106.8088 254.0536 14.74253278647838
APRIZESAT 10            
1 40019U 14033K   26196.90212779  .00000283  00000+0  52285-4 0  9994
2 40019  97.9682 323.2262 0078788 181.0864 179.0184 14.70911386646470
TECHDEMOSAT-1 (TDS-1)   
1 40076U 14037H   26196.98373772  .00004007  00000+0  22692-3 0  9996
2 40076  98.3826 192.0617 0006976 156.1441 204.0112 15.13686242652585
TECHNOSAT               
1 42829U 17042E   26197.03733352  .00001602  00000+0  11643-3 0  9996
2 42829  97.4318 353.6046 0017351   0.8155 359.3097 15.05114054491042
FLYING LAPTOP           
1 42831U 17042G   26197.17981823  .00001731  00000+0  13845-3 0  9991
2 42831  97.4808 351.6221 0019656  29.3910 330.8416 15.01315973490808
HAWK-A                  
1 43765U 18099H   26197.09145057  .00003930  00000+0  15791-3 0  9998
2 43765  97.3893 248.9541 0034796 180.7785 179.3404 15.24971821417509
HAWK-B                  
1 43794U 18099AN  26197.14770714  .00003202  00000+0  13691-3 0  9999
2 43794  97.3944 248.3633 0031483 198.6833 161.3250 15.23121029417445
HAWK-C                  
1 43799U 18099AT  26197.19839566  .00004496  00000+0  16100-3 0  9994
2 43799  97.3872 250.1160 0040418 180.2835 179.8389 15.28499723418344
SALSAT                  
1 46495U 20068K   26196.98743720  .00004018  00000+0  14039-3 0  9990
2 46495  97.8856 201.8148 0009305 189.9449 170.1607 15.30178734319765
HAWK-2C                 
1 47502U 21006CT  26197.16444804  .00003456  00000+0  10400-3 0  9998
2 47502  97.2262 240.9001 0008671  98.1007 262.1220 15.34995811303941
HAWK-2A                 
1 47505U 21006CW  26197.16665786  .00004634  00000+0  13860-3 0  9997
2 47505  97.2304 241.5969 0008218 101.3926 258.8242 15.35017065303948
HAWK-2B                 
1 47508U 21006CZ  26197.09491834  .00004223  00000+0  12599-3 0  9995
2 47508  97.2175 239.8131 0008770 100.1637 260.0596 15.35143831303934
HAWK-3B                 
1 48931U 21059BE  26197.11878249  .00027283  00000+0  21047-3 0  9995
2 48931  97.6632  36.6148 0004586 194.7801 165.3328 15.71923124282398
HAWK-3C                 
1 48948U 21059BX  26197.11846657  .00030746  00000+0  23694-3 0  9999
2 48948  97.6746  42.3495 0004749 195.4013 164.7105 15.71924167282399
HAWK-3A                 
1 48957U 21059CG  26197.11835332  .00027941  00000+0  21549-3 0  9997
2 48957  97.6690  39.5308 0004740 197.5833 162.5266 15.71924464282396
HAWK-5C                 
1 52754U 22057Y   26196.93102428  .00011472  00000+0  19006-3 0  9995
2 52754  97.6616 358.4771 0002731 343.5481  16.5682 15.52341704230809
HAWK-5B                 
1 52756U 22057AA  26197.18868529  .00010270  00000+0  17032-3 0  9998
2 52756  97.6630 357.1056 0003372 327.9501  32.1546 15.52343013230842
HAWK-5A                 
1 52757U 22057AB  26196.99510502  .00011640  00000+0  19279-3 0  9999
2 52757  97.6625 357.7295 0003261 334.4332  25.6758 15.52341839230813
